[
    {
        "Altitude(m)": 612502.2199645046,
        "Argument of Periapsis(deg)": 0.0,
        "Eccentricity": 0.0,
        "Inclination(deg)": 60.0,
        "Latitude(deg)": -28.136055187665047,
        "Longitude(deg)": -172.85180872834695,
        "Mean Anomaly(deg)": -32.72730000000001,
        "RAAN(deg)": 305.0,
        "Satellite Name": "Test1 1362",
        "Satellite Number": 1362,
        "Semi-Major Axis(m)": 6980739.136638005,
        "Time(s)": 0
    },
    {
        "Altitude(m)": 612308.6677512839,
        "Argument of Periapsis(deg)": 0.00010418945913296404,
        "Eccentricity": 0.0,
        "Inclination(deg)": 60.0,
        "Latitude(deg)": -27.623111175399696,
        "Longitude(deg)": -172.49833307049187,
        "Mean Anomaly(deg)": -32.10719385453816,
        "RAAN(deg)": 304.99957995086027,
        "Satellite Name": "Test1 1362",
        "Satellite Number": 1362,
        "Semi-Major Axis(m)": 6980739.136638005,
        "Time(s)": 10
    }
]